ADRAS-J                 
1 58992U 24034A   24252.86780935  .00010308  00000+0  92576-3 0  9990
2 58992  98.2207 229.7829 0044592 132.0040 228.4990 14.95144682 30366
